[{"OBJECT_NAME":"STARLINK-30069","OBJECT_ID":"2023-079M","EPOCH":"2026-03-08T11:34:15.947328","MEAN_MOTION":15.26726881,"ECCENTRICITY":4.69e-5,"INCLINATION":42.9986,"RA_OF_ASC_NODE":110.4464,"ARG_OF_PERICENTER":272.6695,"MEAN_ANOMALY":87.4103,"EPHEMERIS_TYPE":0,"CLASSIFICATION_TYPE":"U","NORAD_CAT_ID":56834,"ELEMENT_SET_NO":999,"REV_AT_EPOCH":15274,"BSTAR":-8.0472e-5,"MEAN_MOTION_DOT":-2.416e-5,"MEAN_MOTION_DDOT":0},{"OBJECT_NAME":"STARLINK-30299","OBJECT_ID":"2023-122U","EPOCH":"2026-03-09T22:00:01.999584","MEAN_MOTION":15.26729319,"ECCENTRICITY":0.00012109,"INCLINATION":43.0012,"RA_OF_ASC_NODE":91.1032,"ARG_OF_PERICENTER":264.2979,"MEAN_ANOMALY":72.0056,"EPHEMERIS_TYPE":0,"CLASSIFICATION_TYPE":"U","NORAD_CAT_ID":57650,"ELEMENT_SET_NO":999,"REV_AT_EPOCH":578,"BSTAR":0.0013863718,"MEAN_MOTION_DOT":0.00037103,"MEAN_MOTION_DDOT":0}]
